ONEWEB-0721             
1 56725U 23068R   26198.10089872  .00000075  00000+0  14480-3 0  9996
2 56725  86.6741  75.9661 0001749  79.5441 280.5890 13.22471256161894
ONEWEB-0015             
1 61594U 24188A   26198.90446143 -.00000510  00000+0 -14746-2 0  9996
2 61594  87.8882  14.9753 0001444  77.5795 282.5495 13.11417283 88484
ONEWEB-0687             
1 61595U 24188B   26198.90898802  .00000017  00000+0  97252-5 0  9996
2 61595  87.9145 359.7631 0001885  78.3883 281.7460 13.17650625 89949
ONEWEB-0688             
1 61596U 24188C   26198.86172882 -.00000190  00000+0 -52175-3 0  9992
2 61596  87.9143 359.7727 0001030  55.6259 304.4970 13.17648605 89934
ONEWEB-0689             
1 61597U 24188D   26198.93838338  .00000537  00000+0  14781-2 0  9999
2 61597  87.8897  14.9310 0002071  84.8602 275.2763 13.11417155 88482
ONEWEB-0690             
1 61598U 24188E   26198.87226491  .00000446  00000+0  12231-2 0  9991
2 61598  87.8894  14.9543 0001681 111.4670 248.6638 13.11415829 88656
ONEWEB-0691             
1 61599U 24188F   26198.94347867  .00000527  00000+0  14498-2 0  9998
2 61599  87.8904  14.8517 0001642  81.0453 279.0861 13.11415737 88516
ONEWEB-0692             
1 61600U 24188G   26198.88750674 -.00000147  00000+0 -45108-3 0  9991
2 61600  87.8884  14.9703 0002635  93.2652 266.8777 13.11416063 88493
ONEWEB-0693             
1 61601U 24188H   26198.87355308 -.00000008  00000+0 -53521-4 0  9991
2 61601  87.9140 359.7888 0001525 118.3178 241.8107 13.17649746 89924
ONEWEB-0695             
1 61602U 24188J   26198.94008557  .00000493  00000+0  13551-2 0  9994
2 61602  87.8883  14.9521 0002346  86.5472 273.5924 13.11416958 88498
ONEWEB-0697             
1 61603U 24188K   26198.89598857 -.00000465  00000+0 -13469-2 0  9995
2 61603  87.8886  14.9512 0002574  96.2722 263.8699 13.11416180 88477
ONEWEB-0698             
1 61604U 24188L   26198.87396172  .00000406  00000+0  11104-2 0  9997
2 61604  87.8884  14.9692 0002601 115.8310 244.3086 13.11415450 88492
ONEWEB-0699             
1 61605U 24188M   26198.91097855  .00000639  00000+0  17951-2 0  9993
2 61605  87.8817  30.1426 0002467  96.1611 263.9797 13.10372099 87337
ONEWEB-0700             
1 61606U 24188N   26198.91266416  .00000603  00000+0  16913-2 0  9993
2 61606  87.8834  30.0563 0002499  94.4233 265.7180 13.10370103 87323
ONEWEB-0701             
1 61607U 24188P   26198.92963142 -.00000216  00000+0 -65375-3 0  9994
2 61607  87.8817  30.1392 0002590  97.8184 262.3238 13.10369466 87338
ONEWEB-0702             
1 61608U 24188Q   26198.91973546 -.00000047  00000+0 -16928-3 0  9995
2 61608  87.8906  14.8718 0002890  91.5370 268.6090 13.11418780 88511
ONEWEB-0704             
1 61609U 24188R   26198.91775616  .00000396  00000+0  10968-2 0  9996
2 61609  87.8821  30.1318 0002871  87.6873 272.4583 13.10369690 87319
ONEWEB-0705             
1 61610U 24188S   26198.77013376  .00000119  00000+0  30420-3 0  9999
2 61610  87.8820  30.1672 0002638  71.9315 288.2100 13.10369550 79463
ONEWEB-0706             
1 61611U 24188T   26198.90758407  .00000944  00000+0  26688-2 0  9992
2 61611  87.8819  30.1432 0002502  86.1275 274.0139 13.10371623 87401
ONEWEB-0707             
1 61612U 24188U   26198.91435995  .00000552  00000+0  15460-2 0  9999
2 61612  87.8822  30.1373 0002437  86.9204 273.2202 13.10369288 87346
ONEWEB-0708             
1 61613U 24188V   26198.93301118 -.00000362  00000+0 -10729-2 0  9995
2 61613  87.8813  30.1494 0001945  71.4771 288.6567 13.10369324 87325
