OBJECT_NAME,OBJECT_ID,EPOCH,MEAN_MOTION,ECCENTRICITY,INCLINATION,RA_OF_ASC_NODE,ARG_OF_PERICENTER,MEAN_ANOMALY,EPHEMERIS_TYPE,CLASSIFICATION_TYPE,NORAD_CAT_ID,ELEMENT_SET_NO,REV_AT_EPOCH,BSTAR,MEAN_MOTION_DOT,MEAN_MOTION_DDOT
ONEWEB-0721,2023-068R,2026-07-17T02:25:17.649408,13.22471256,.00017493,86.6741,75.9661,79.5441,280.5890,0,U,56725,999,16189,.14479695E-3,.75E-6,0
ONEWEB-0015,2024-188A,2026-07-17T21:42:25.467552,13.11417283,.00014444,87.8882,14.9753,77.5795,282.5495,0,U,61594,999,8848,-.14746384E-2,-.51E-5,0
ONEWEB-0687,2024-188B,2026-07-17T21:48:56.564928,13.17650625,.00018852,87.9145,359.7631,78.3883,281.7460,0,U,61595,999,8994,.9725156E-5,.17E-6,0
ONEWEB-0688,2024-188C,2026-07-17T20:40:53.370048,13.17648605,.00010307,87.9143,359.7727,55.6259,304.4970,0,U,61596,999,8993,-.52175148E-3,-.19E-5,0
ONEWEB-0689,2024-188D,2026-07-17T22:31:16.324032,13.11417155,.00020719,87.8897,14.9310,84.8602,275.2763,0,U,61597,999,8848,.14780999E-2,.537E-5,0
ONEWEB-0690,2024-188E,2026-07-17T20:56:03.688224,13.11415829,.00016815,87.8894,14.9543,111.4670,248.6638,0,U,61598,999,8865,.12231206E-2,.446E-5,0
ONEWEB-0691,2024-188F,2026-07-17T22:38:36.557088,13.11415737,.00016429,87.8904,14.8517,81.0453,279.0861,0,U,61599,999,8851,.14497603E-2,.527E-5,0
ONEWEB-0692,2024-188G,2026-07-17T21:18:00.582336,13.11416063,.00026359,87.8884,14.9703,93.2652,266.8777,0,U,61600,999,8849,-.45107682E-3,-.147E-5,0
ONEWEB-0693,2024-188H,2026-07-17T20:57:54.986112,13.17649746,.00015257,87.9140,359.7888,118.3178,241.8107,0,U,61601,999,8992,-.5352133E-4,-.8E-7,0
ONEWEB-0695,2024-188J,2026-07-17T22:33:43.393248,13.11416958,.00023464,87.8883,14.9521,86.5472,273.5924,0,U,61602,999,8849,.13550887E-2,.493E-5,0
ONEWEB-0697,2024-188K,2026-07-17T21:30:13.412448,13.11416180,.00025741,87.8886,14.9512,96.2722,263.8699,0,U,61603,999,8847,-.13468888E-2,-.465E-5,0
ONEWEB-0698,2024-188L,2026-07-17T20:58:30.292608,13.11415450,.00026014,87.8884,14.9692,115.8310,244.3086,0,U,61604,999,8849,.11104213E-2,.406E-5,0
ONEWEB-0699,2024-188M,2026-07-17T21:51:48.546720,13.10372099,.00024673,87.8817,30.1426,96.1611,263.9797,0,U,61605,999,8733,.17950877E-2,.639E-5,0
ONEWEB-0700,2024-188N,2026-07-17T21:54:14.183424,13.10370103,.00024994,87.8834,30.0563,94.4233,265.7180,0,U,61606,999,8732,.16912671E-2,.603E-5,0
ONEWEB-0701,2024-188P,2026-07-17T22:18:40.154688,13.10369466,.00025904,87.8817,30.1392,97.8184,262.3238,0,U,61607,999,8733,-.65374739E-3,-.216E-5,0
ONEWEB-0702,2024-188Q,2026-07-17T22:04:25.143744,13.11418780,.00028906,87.8906,14.8718,91.5370,268.6090,0,U,61608,999,8851,-.16927769E-3,-.47E-6,0
ONEWEB-0704,2024-188R,2026-07-17T22:01:34.132224,13.10369690,.00028712,87.8821,30.1318,87.6873,272.4583,0,U,61609,999,8731,.109681E-2,.396E-5,0
ONEWEB-0705,2024-188S,2026-07-17T18:28:59.556864,13.10369550,.00026384,87.8820,30.1672,71.9315,288.2100,0,U,61610,999,7946,.30420186E-3,.119E-5,0
ONEWEB-0706,2024-188T,2026-07-17T21:46:55.263648,13.10371623,.00025022,87.8819,30.1432,86.1275,274.0139,0,U,61611,999,8740,.26688257E-2,.944E-5,0
ONEWEB-0707,2024-188U,2026-07-17T21:56:40.699680,13.10369288,.00024372,87.8822,30.1373,86.9204,273.2202,0,U,61612,999,8734,.15460357E-2,.552E-5,0
ONEWEB-0708,2024-188V,2026-07-17T22:23:32.165952,13.10369324,.0001945,87.8813,30.1494,71.4771,288.6567,0,U,61613,999,8732,-.10728837E-2,-.362E-5,0
